ONEWEB-0369             
1 49295U 21090S   23230.34367214  .00000132  00000+0  29689-3 0  9993
2 49295  87.9283 150.6977 0001831  81.3863 278.7477 13.19726243 91342
ONEWEB-0370             
1 49296U 21090T   23230.09181962  .00000054  00000+0  10019-3 0  9990
2 49296  87.9219 120.3398 0001918  77.3062 282.8286 13.20770243 94668
ONEWEB-0371             
1 49297U 21090U   23230.27627437  .00000072  00000+0  14693-3 0  9995
2 49297  87.9287 150.6993 0002000  80.2260 279.9099 13.19726069 91376
ONEWEB-0372             
1 49298U 21090V   23230.08129017  .00000038  00000+0  61848-4 0  9993
2 49298  87.9216 120.3382 0002015  90.4014 269.7350 13.20774002 94632
ONEWEB-0373             
1 49299U 21090W   23230.10864973  .00000137  00000+0  30552-3 0  9991
2 49299  87.9299 120.2671 0001495  74.0609 286.0689 13.20773115 95826
ONEWEB-0374             
1 49300U 21090X   23230.28725686  .00000048  00000+0  96191-4 0  9993
2 49300  87.9043 135.5115 0001833  77.9990 282.1345 13.14501050 93025
ONEWEB-0375             
1 49301U 21090Y   23230.09602961  .00000103  00000+0  22239-3 0  9996
2 49301  87.9216 120.3418 0001848  54.5584 305.5722 13.20771551 95317
ONEWEB-0376             
1 49302U 21090Z   23230.34997603  .00000168  00000+0  38738-3 0  9997
2 49302  87.9288 150.7010 0001979  87.0638 273.0722 13.19728301 91372
